{
  "type": "FeatureCollection",
  "features": [
    {
      "type": "Feature",
      "properties": {
        "norad_id": 66774,
        "name": "TRANSPORTER-15 DN",
        "group": "last-30-days",
        "lat": -73.22524874376309,
        "lon": -137.2768310382976,
        "alt_km": 519.3146433523607,
        "timestamp": "2025-12-22T18:58:52.138895+00:00",
        "meta_object_name": "TRANSPORTER-15 DN",
        "meta_object_id": "2025-276DN",
        "meta_epoch": "2025-12-22T05:12:38.691936",
        "meta_mean_motion": 15.18573251,
        "meta_eccentricity": 0.00029762,
        "meta_inclination": 97.4422,
        "meta_ra_of_asc_node": 67.8577,
        "meta_arg_of_pericenter": 100.437,
        "meta_mean_anomaly": 259.72,
        "meta_ephemeris_type": 0,
        "meta_classification_type": "U",
        "meta_norad_cat_id": 66774,
        "meta_element_set_no": 999,
        "meta_rev_at_epoch": 356,
        "meta_bstar": 0.00063114467,
        "meta_mean_motion_dot": 0.00012992,
        "meta_mean_motion_ddot": 0,
        "tle_line1": "1 66774U 25276DN  25356.21711449  .00012992  00000+0  63114-3 0  9992",
        "tle_line2": "2 66774  97.4422  67.8577 0002976 100.4370 259.7200 15.18573251  3566"
      },
      "geometry": {
        "type": "Point",
        "coordinates": [
          -137.2768310382976,
          -73.22524874376309
        ]
      }
    },
    {
      "type": "Feature",
      "properties": {
        "norad_id": 66775,
        "name": "TRANSPORTER-15 DP",
        "group": "last-30-days",
        "lat": -76.81629441928783,
        "lon": -145.47632843282878,
        "alt_km": 519.1873416381113,
        "timestamp": "2025-12-22T18:58:52.138905+00:00",
        "meta_object_name": "TRANSPORTER-15 DP",
        "meta_object_id": "2025-276DP",
        "meta_epoch": "2025-12-22T05:11:34.598688",
        "meta_mean_motion": 15.18639183,
        "meta_eccentricity": 0.00028235,
        "meta_inclination": 97.4344,
        "meta_ra_of_asc_node": 67.8376,
        "meta_arg_of_pericenter": 73.8558,
        "meta_mean_anomaly": 286.2987,
        "meta_ephemeris_type": 0,
        "meta_classification_type": "U",
        "meta_norad_cat_id": 66775,
        "meta_element_set_no": 999,
        "meta_rev_at_epoch": 356,
        "meta_bstar": 0.00062653184,
        "meta_mean_motion_dot": 0.00012921,
        "meta_mean_motion_ddot": 0,
        "tle_line1": "1 66775U 25276DP  25356.21637267  .00012921  00000+0  62653-3 0  9997",
        "tle_line2": "2 66775  97.4344  67.8376 0002823  73.8558 286.2987 15.18639183  3563"
      },
      "geometry": {
        "type": "Point",
        "coordinates": [
          -145.47632843282878,
          -76.81629441928783
        ]
      }
    },
    {
      "type": "Feature",
      "properties": {
        "norad_id": 66776,
        "name": "TRANSPORTER-15 DQ",
        "group": "last-30-days",
        "lat": -78.36525502455572,
        "lon": -150.9695076320018,
        "alt_km": 519.143239295523,
        "timestamp": "2025-12-22T18:58:52.138915+00:00",
        "meta_object_name": "TRANSPORTER-15 DQ",
        "meta_object_id": "2025-276DQ",
        "meta_epoch": "2025-12-22T05:11:05.222688",
        "meta_mean_motion": 15.18680896,
        "meta_eccentricity": 0.00029137,
        "meta_inclination": 97.4384,
        "meta_ra_of_asc_node": 67.8495,
        "meta_arg_of_pericenter": 86.2808,
        "meta_mean_anomaly": 273.876,
        "meta_ephemeris_type": 0,
        "meta_classification_type": "U",
        "meta_norad_cat_id": 66776,
        "meta_element_set_no": 999,
        "meta_rev_at_epoch": 356,
        "meta_bstar": 0.00061483537,
        "meta_mean_motion_dot": 0.00012694,
        "meta_mean_motion_ddot": 0,
        "tle_line1": "1 66776U 25276DQ  25356.21603267  .00012694  00000+0  61484-3 0  9999",
        "tle_line2": "2 66776  97.4384  67.8495 0002913  86.2808 273.8760 15.18680896  3564"
      },
      "geometry": {
        "type": "Point",
        "coordinates": [
          -150.9695076320018,
          -78.36525502455572
        ]
      }
    },
    {
      "type": "Feature",
      "properties": {
        "norad_id": 66777,
        "name": "TRANSPORTER-15 DR",
        "group": "last-30-days",
        "lat": -81.761656104479,
        "lon": 133.06112557001822,
        "alt_km": 518.7318604739994,
        "timestamp": "2025-12-22T18:58:52.138925+00:00",
        "meta_object_name": "TRANSPORTER-15 DR",
        "meta_object_id": "2025-276DR",
        "meta_epoch": "2025-12-22T03:33:02.735712",
        "meta_mean_motion": 15.18897919,
        "meta_eccentricity": 0.0003442,
        "meta_inclination": 97.4472,
        "meta_ra_of_asc_node": 67.8124,
        "meta_arg_of_pericenter": 114.2073,
        "meta_mean_anomaly": 245.9522,
        "meta_ephemeris_type": 0,
        "meta_classification_type": "U",
        "meta_norad_cat_id": 66777,
        "meta_element_set_no": 999,
        "meta_rev_at_epoch": 355,
        "meta_bstar": 0.00070515309,
        "meta_mean_motion_dot": 0.00014664,
        "meta_mean_motion_ddot": 0,
        "tle_line1": "1 66777U 25276DR  25356.14794833  .00014664  00000+0  70515-3 0  9996",
        "tle_line2": "2 66777  97.4472  67.8124 0003442 114.2073 245.9522 15.18897919  3557"
      },
      "geometry": {
        "type": "Point",
        "coordinates": [
          133.06112557001822,
          -81.761656104479
        ]
      }
    },
    {
      "type": "Feature",
      "properties": {
        "norad_id": 66791,
        "name": "STARLINK-35867",
        "group": "last-30-days",
        "lat": 42.97492015692231,
        "lon": -77.64016961867765,
        "alt_km": 404.13800521491066,
        "timestamp": "2025-12-22T18:58:52.138939+00:00",
        "meta_object_name": "STARLINK-35867",
        "meta_object_id": "2025-278A",
        "meta_epoch": "2025-12-22T06:00:02.000160",
        "meta_mean_motion": 15.54776231,
        "meta_eccentricity": 0.00014494,
        "meta_inclination": 42.999,
        "meta_ra_of_asc_node": 194.6283,
        "meta_arg_of_pericenter": 258.933,
        "meta_mean_anomaly": 43.1661,
        "meta_ephemeris_type": 0,
        "meta_classification_type": "U",
        "meta_norad_cat_id": 66791,
        "meta_element_set_no": 999,
        "meta_rev_at_epoch": 448,
        "meta_bstar": -0.033778988,
        "meta_mean_motion_dot": -0.02056614,
        "meta_mean_motion_ddot": 0,
        "tle_line1": "1 66791U 25278A   25356.25002315 -.02056614  00000+0 -33779-1 0  9997",
        "tle_line2": "2 66791  42.9990 194.6283 0001449 258.9330  43.1661 15.54776231  4483"
      },
      "geometry": {
        "type": "Point",
        "coordinates": [
          -77.64016961867765,
          42.97492015692231
        ]
      }
    },
    {
      "type": "Feature",
      "properties": {
        "norad_id": 66792,
        "name": "STARLINK-35990",
        "group": "last-30-days",
        "lat": 42.92479673346121,
        "lon": -75.02579560297102,
        "alt_km": 404.2054834627388,
        "timestamp": "2025-12-22T18:58:52.138951+00:00",
        "meta_object_name": "STARLINK-35990",
        "meta_object_id": "2025-278B",
        "meta_epoch": "2025-12-22T06:00:02.000160",
        "meta_mean_motion": 15.54780056,
        "meta_eccentricity": 0.00015127,
        "meta_inclination": 42.9995,
        "meta_ra_of_asc_node": 194.6239,
        "meta_arg_of_pericenter": 260.445,
        "meta_mean_anomaly": 43.5709,
        "meta_ephemeris_type": 0,
        "meta_classification_type": "U",
        "meta_norad_cat_id": 66792,
        "meta_element_set_no": 999,
        "meta_rev_at_epoch": 448,
        "meta_bstar": -0.03391142,
        "meta_mean_motion_dot": -0.02064104,
        "meta_mean_motion_ddot": 0,
        "tle_line1": "1 66792U 25278B   25356.25002315 -.02064104  00000+0 -33911-1 0  9999",
        "tle_line2": "2 66792  42.9995 194.6239 0001512 260.4450  43.5709 15.54780056  4489"
      },
      "geometry": {
        "type": "Point",
        "coordinates": [
          -75.02579560297102,
          42.92479673346121
        ]
      }
    },
    {
      "type": "Feature",
      "properties": {
        "norad_id": 66793,
        "name": "STARLINK-36051",
        "group": "last-30-days",
        "lat": 42.64523235464335,
        "lon": -69.82209445367512,
        "alt_km": 404.1827500538484,
        "timestamp": "2025-12-22T18:58:52.138964+00:00",
        "meta_object_name": "STARLINK-36051",
        "meta_object_id": "2025-278C",
        "meta_epoch": "2025-12-22T06:00:02.000160",
        "meta_mean_motion": 15.5477813,
        "meta_eccentricity": 0.00014994,
        "meta_inclination": 42.9995,
        "meta_ra_of_asc_node": 194.6142,
        "meta_arg_of_pericenter": 255.9486,
        "meta_mean_anomaly": 51.901,
        "meta_ephemeris_type": 0,
        "meta_classification_type": "U",
        "meta_norad_cat_id": 66793,
        "meta_element_set_no": 999,
        "meta_rev_at_epoch": 438,
        "meta_bstar": -0.033853517,
        "meta_mean_motion_dot": -0.02060822,
        "meta_mean_motion_ddot": 0,
        "tle_line1": "1 66793U 25278C   25356.25002315 -.02060822  00000+0 -33854-1 0  9999",
        "tle_line2": "2 66793  42.9995 194.6142 0001499 255.9486  51.9010 15.54778130  4382"
      },
      "geometry": {
        "type": "Point",
        "coordinates": [
          -69.82209445367512,
          42.64523235464335
        ]
      }
    }
  ]
}